{
  "type": "FeatureCollection",
  "features": [
    {
      "type": "Feature",
      "properties": {
        "norad_id": 66549,
        "name": "SHIJIAN-28 (SJ-28)",
        "group": "last-30-days",
        "lat": 3.494023167658265,
        "lon": -40.72214824416175,
        "alt_km": 35786.83571193167,
        "timestamp": "2025-12-20T07:33:49.511630+00:00",
        "meta_object_name": "SHIJIAN-28 (SJ-28)",
        "meta_object_id": "2025-277A",
        "meta_epoch": "2025-12-19T20:28:56.277696",
        "meta_mean_motion": 1.00268445,
        "meta_eccentricity": 0.0001035,
        "meta_inclination": 5.0011,
        "meta_ra_of_asc_node": 274.8456,
        "meta_arg_of_pericenter": 136.7763,
        "meta_mean_anomaly": 101.1297,
        "meta_ephemeris_type": 0,
        "meta_classification_type": "U",
        "meta_norad_cat_id": 66549,
        "meta_element_set_no": 999,
        "meta_rev_at_epoch": 35,
        "meta_bstar": 0,
        "meta_mean_motion_dot": -3.3e-06,
        "meta_mean_motion_ddot": 0,
        "tle_line1": "1 66549U 25277A   25353.85342914 -.00000330  00000+0  00000+0 0  9992",
        "tle_line2": "2 66549   5.0011 274.8456 0001035 136.7763 101.1297  1.00268445   356"
      },
      "geometry": {
        "type": "Point",
        "coordinates": [
          -40.72214824416175,
          3.494023167658265
        ]
      }
    },
    {
      "type": "Feature",
      "properties": {
        "norad_id": 66550,
        "name": "CZ-7A R/B",
        "group": "last-30-days",
        "lat": -12.894626641368832,
        "lon": -157.47046639582138,
        "alt_km": 5901.714524395994,
        "timestamp": "2025-12-20T07:33:49.511681+00:00",
        "meta_object_name": "CZ-7A R/B",
        "meta_object_id": "2025-277B",
        "meta_epoch": "2025-12-18T08:54:45.891936",
        "meta_mean_motion": 2.8884184,
        "meta_eccentricity": 0.68790865,
        "meta_inclination": 14.3533,
        "meta_ra_of_asc_node": 266.9093,
        "meta_arg_of_pericenter": 194.6822,
        "meta_mean_anomaly": 125.1782,
        "meta_ephemeris_type": 0,
        "meta_classification_type": "U",
        "meta_norad_cat_id": 66550,
        "meta_element_set_no": 999,
        "meta_rev_at_epoch": 50,
        "meta_bstar": 0.0030390821,
        "meta_mean_motion_dot": 0.0266328,
        "meta_mean_motion_ddot": 1.405796e-06,
        "tle_line1": "1 66550U 25277B   25352.37136449  .02663280  14058-5  30391-2 0  9997",
        "tle_line2": "2 66550  14.3533 266.9093 6879086 194.6822 125.1782  2.88841840   508"
      },
      "geometry": {
        "type": "Point",
        "coordinates": [
          -157.47046639582138,
          -12.894626641368832
        ]
      }
    },
    {
      "type": "Feature",
      "properties": {
        "norad_id": 66554,
        "name": "GLOBAL-33",
        "group": "last-30-days",
        "lat": 34.68797022061831,
        "lon": 143.02662149641833,
        "alt_km": 463.0444272931236,
        "timestamp": "2025-12-20T07:33:49.511710+00:00",
        "meta_object_name": "GLOBAL-33",
        "meta_object_id": "2025-267A",
        "meta_epoch": "2025-12-19T09:07:28.398720",
        "meta_mean_motion": 15.31600421,
        "meta_eccentricity": 0.00036222,
        "meta_inclination": 42.0217,
        "meta_ra_of_asc_node": 18.6576,
        "meta_arg_of_pericenter": 135.9211,
        "meta_mean_anomaly": 224.1916,
        "meta_ephemeris_type": 0,
        "meta_classification_type": "U",
        "meta_norad_cat_id": 66554,
        "meta_element_set_no": 999,
        "meta_rev_at_epoch": 442,
        "meta_bstar": 0.00025464031,
        "meta_mean_motion_dot": 7.695e-05,
        "meta_mean_motion_ddot": 0,
        "tle_line1": "1 66554U 25267A   25353.38018980  .00007695  00000+0  25464-3 0  9993",
        "tle_line2": "2 66554  42.0217  18.6576 0003622 135.9211 224.1916 15.31600421  4420"
      },
      "geometry": {
        "type": "Point",
        "coordinates": [
          143.02662149641833,
          34.68797022061831
        ]
      }
    },
    {
      "type": "Feature",
      "properties": {
        "norad_id": 66555,
        "name": "ELECTRON KICK STAGE R/B",
        "group": "last-30-days",
        "lat": -28.03707427988687,
        "lon": -130.73130652788,
        "alt_km": 470.51331236559145,
        "timestamp": "2025-12-20T07:33:49.511724+00:00",
        "meta_object_name": "ELECTRON KICK STAGE R/B",
        "meta_object_id": "2025-267B",
        "meta_epoch": "2025-12-19T18:04:54.008832",
        "meta_mean_motion": 15.33128579,
        "meta_eccentricity": 0.00068354,
        "meta_inclination": 42.0196,
        "meta_ra_of_asc_node": 16.2602,
        "meta_arg_of_pericenter": 110.4323,
        "meta_mean_anomaly": 249.7249,
        "meta_ephemeris_type": 0,
        "meta_classification_type": "U",
        "meta_norad_cat_id": 66555,
        "meta_element_set_no": 999,
        "meta_rev_at_epoch": 448,
        "meta_bstar": 0.00053717266,
        "meta_mean_motion_dot": 0.00017365,
        "meta_mean_motion_ddot": 0,
        "tle_line1": "1 66555U 25267B   25353.75340288  .00017365  00000+0  53717-3 0  9991",
        "tle_line2": "2 66555  42.0196  16.2602 0006835 110.4323 249.7249 15.33128579  4481"
      },
      "geometry": {
        "type": "Point",
        "coordinates": [
          -130.73130652788,
          -28.03707427988687
        ]
      }
    },
    {
      "type": "Feature",
      "properties": {
        "norad_id": 66557,
        "name": "STARLINK-35699",
        "group": "last-30-days",
        "lat": -28.069443047164622,
        "lon": 41.98692860349064,
        "alt_km": 416.9461682543697,
        "timestamp": "2025-12-20T07:33:49.511736+00:00",
        "meta_object_name": "STARLINK-35699",
        "meta_object_id": "2025-268A",
        "meta_epoch": "2025-12-19T13:12:05.651424",
        "meta_mean_motion": 15.50689057,
        "meta_eccentricity": 0.0002216,
        "meta_inclination": 43.0009,
        "meta_ra_of_asc_node": 81.3713,
        "meta_arg_of_pericenter": 38.1148,
        "meta_mean_anomaly": 321.9869,
        "meta_ephemeris_type": 0,
        "meta_classification_type": "U",
        "meta_norad_cat_id": 66557,
        "meta_element_set_no": 999,
        "meta_rev_at_epoch": 568,
        "meta_bstar": 0.00095065,
        "meta_mean_motion_dot": 0.00056051,
        "meta_mean_motion_ddot": 0,
        "tle_line1": "1 66557U 25268A   25353.55006541  .00056051  00000+0  95065-3 0  9990",
        "tle_line2": "2 66557  43.0009  81.3713 0002216  38.1148 321.9869 15.50689057  5689"
      },
      "geometry": {
        "type": "Point",
        "coordinates": [
          41.98692860349064,
          -28.069443047164622
        ]
      }
    },
    {
      "type": "Feature",
      "properties": {
        "norad_id": 66558,
        "name": "STARLINK-35695",
        "group": "last-30-days",
        "lat": -26.715368921115054,
        "lon": 44.20410682734707,
        "alt_km": 414.5387997011012,
        "timestamp": "2025-12-20T07:33:49.511751+00:00",
        "meta_object_name": "STARLINK-35695",
        "meta_object_id": "2025-268B",
        "meta_epoch": "2025-12-19T13:11:35.879712",
        "meta_mean_motion": 15.50780077,
        "meta_eccentricity": 0.0002483,
        "meta_inclination": 43.0025,
        "meta_ra_of_asc_node": 81.3711,
        "meta_arg_of_pericenter": 320.1959,
        "meta_mean_anomaly": 39.8719,
        "meta_ephemeris_type": 0,
        "meta_classification_type": "U",
        "meta_norad_cat_id": 66558,
        "meta_element_set_no": 999,
        "meta_rev_at_epoch": 568,
        "meta_bstar": 0.0027699,
        "meta_mean_motion_dot": 0.00166863,
        "meta_mean_motion_ddot": 0,
        "tle_line1": "1 66558U 25268B   25353.54972083  .00166863  00000+0  27699-2 0  9993",
        "tle_line2": "2 66558  43.0025  81.3711 0002483 320.1959  39.8719 15.50780077  5689"
      },
      "geometry": {
        "type": "Point",
        "coordinates": [
          44.20410682734707,
          -26.715368921115054
        ]
      }
    },
    {
      "type": "Feature",
      "properties": {
        "norad_id": 66559,
        "name": "STARLINK-35419",
        "group": "last-30-days",
        "lat": -25.807974036552995,
        "lon": 45.6247885782434,
        "alt_km": 421.3338654751542,
        "timestamp": "2025-12-20T07:33:49.511763+00:00",
        "meta_object_name": "STARLINK-35419",
        "meta_object_id": "2025-268C",
        "meta_epoch": "2025-12-19T22:27:34.329600",
        "meta_mean_motion": 15.50718782,
        "meta_eccentricity": 0.0008647,
        "meta_inclination": 42.9997,
        "meta_ra_of_asc_node": 79.1074,
        "meta_arg_of_pericenter": 182.2061,
        "meta_mean_anomaly": 177.8763,
        "meta_ephemeris_type": 0,
        "meta_classification_type": "U",
        "meta_norad_cat_id": 66559,
        "meta_element_set_no": 999,
        "meta_rev_at_epoch": 574,
        "meta_bstar": -0.0006741105,
        "meta_mean_motion_dot": -0.00039954,
        "meta_mean_motion_ddot": 0,
        "tle_line1": "1 66559U 25268C   25353.93581400 -.00039954  00000+0 -67411-3 0  9995",
        "tle_line2": "2 66559  42.9997  79.1074 0008647 182.2061 177.8763 15.50718782  5745"
      },
      "geometry": {
        "type": "Point",
        "coordinates": [
          45.6247885782434,
          -25.807974036552995
        ]
      }
    }
  ]
}